OBJECT_NAME,OBJECT_ID,EPOCH,MEAN_MOTION,ECCENTRICITY,INCLINATION,RA_OF_ASC_NODE,ARG_OF_PERICENTER,MEAN_ANOMALY,EPHEMERIS_TYPE,CLASSIFICATION_TYPE,NORAD_CAT_ID,ELEMENT_SET_NO,REV_AT_EPOCH,BSTAR,MEAN_MOTION_DOT,MEAN_MOTION_DDOT
BEIDOU-2 G3,2010-024A,2026-07-08T14:04:44.747328,1.00269706,.00074556,4.5631,61.4179,359.3582,156.5776,0,U,36590,999,5898,0,-.124E-5,0
BADR-5,2010-025A,2026-07-08T12:07:49.160640,1.00275091,.00052817,0.0405,140.5490,53.4474,304.8845,0,U,36592,999,5343,0,.169E-5,0
COMS 1,2010-032A,2026-07-08T08:30:55.567584,0.99169315,.00113597,4.8563,75.1008,14.7290,313.4314,0,U,36744,999,5129,0,-.198E-5,0
ARABSAT-5A,2010-032B,2026-07-08T12:08:04.137216,1.00270909,.00056144,0.0961,63.0510,54.5716,21.3256,0,U,36745,999,5886,0,.168E-5,0
ECHOSTAR 15,2010-034A,2026-07-08T13:08:08.519712,1.00270548,.00021043,0.0172,315.8453,127.5622,281.3111,0,U,36792,999,5853,0,.15E-6,0
BEIDOU-2 IGSO-1,2010-036A,2026-07-07T14:57:11.145024,1.00266308,.0059224,54.3062,162.7756,225.1869,229.2421,0,U,36828,999,5830,0,-.58E-6,0
NILESAT 201,2010-037A,2026-07-08T08:31:55.472160,1.00271746,.00054549,0.0287,166.5838,327.8933,272.8238,0,U,36830,999,5858,0,-.43E-6,0
RASCOM-QAF 1R,2010-037B,2026-07-08T08:34:47.696736,1.00271825,.00064748,0.0180,69.6075,28.9773,319.3021,0,U,36831,999,5851,0,.33E-6,0
AEHF-1 (USA 214),2010-039A,2026-07-08T06:59:54.049056,1.00271415,.00038185,8.2696,67.7683,35.8473,317.5312,0,U,36868,999,5386,0,.156E-5,0
XM-5,2010-053A,2026-07-08T13:09:08.425152,1.00270805,.00018377,0.0624,268.3398,309.8514,150.3954,0,U,37185,999,5769,0,-.8E-7,0
BSAT-3B,2010-056B,2026-07-07T17:41:23.407008,1.00271375,.00024494,0.0647,238.2587,303.8616,118.7692,0,U,37207,999,5230,0,-.335E-5,0
BEIDOU-2 G4,2010-057A,2026-07-08T12:44:55.745664,1.00270625,.00052697,3.6964,68.8177,185.6172,23.2378,0,U,37210,999,5750,0,-.101E-5,0
SKYTERRA 1,2010-061A,2026-07-08T13:13:08.041728,1.00270931,.00022299,5.1678,50.8121,34.8030,297.8389,0,U,37218,999,5740,0,-.107E-5,0
HYLAS 1,2010-065A,2026-07-07T21:00:00.000000,1.00637435,.00007176,5.6913,72.7804,130.1391,60.5943,0,U,37237,999,709,0,.16E-5,0
INTELSAT 17 (IS-17),2010-065B,2026-07-08T12:18:10.666944,1.00272753,.00026199,0.0111,81.3732,31.6049,64.0225,0,U,37238,999,5346,0,.13E-6,0
BEIDOU-2 IGSO-2,2010-068A,2026-07-08T14:28:30.978048,1.00276139,.00567556,47.5085,271.5668,213.3757,127.0514,0,U,37256,999,5700,0,-.203E-5,0
EUTELSAT KA-SAT 9A,2010-069A,2026-07-08T08:36:32.529312,1.00270870,.0004205,0.0606,12.6432,126.0491,285.7421,0,U,37258,999,4421,0,.76E-6,0
HISPASAT 30W-5,2010-070A,2026-07-08T10:08:04.411392,1.00272257,.00055879,0.0292,158.4181,324.2310,285.7453,0,U,37264,999,5339,0,-.201E-5,0
KOREASAT 6,2010-070B,2026-07-08T12:44:55.745664,1.00272056,.00025113,0.0118,315.3864,166.9932,155.2340,0,U,37265,999,5698,0,-.97E-6,0
BEIDOU-2 IGSO-3,2011-013A,2026-07-06T12:35:26.043936,1.00262965,.00352452,62.4337,39.9702,183.2519,357.0849,0,U,37384,999,5585,0,-.17E-5,0
INTELSAT 28 (IS-28),2011-016A,2026-07-08T10:07:34.459104,1.00272990,.00037652,1.8579,82.3644,34.4907,289.6814,0,U,37392,999,5349,0,-.211E-5,0
YAHSAT 1A,2011-016B,2026-07-08T13:56:56.341824,1.00270015,.00032207,0.0207,62.7757,53.1869,72.2953,0,U,37393,999,4262,0,.116E-5,0
SBIRS GEO-1 (USA 230),2011-019A,2026-07-08T01:58:13.630080,1.00272431,.00019217,4.5814,53.1106,46.6051,267.6757,0,U,37481,999,5560,0,.111E-5,0
TELSTAR 14R,2011-021A,2026-07-08T13:23:59.501184,1.00271459,.00018014,0.0690,84.3956,355.8308,344.2883,0,U,37602,999,5604,0,-.265E-5,0
GSAT-8,2011-022A,2026-07-08T13:57:26.294112,1.00271102,.00025248,2.1831,81.5665,166.4494,302.9504,0,U,37605,999,5343,0,.98E-6,0
ST-2,2011-022B,2026-07-08T14:07:07.018752,1.00266743,.00013681,0.0147,335.6201,157.1534,93.5328,0,U,37606,999,5549,0,-.195E-5,0
ZHONGXING-10,2011-026A,2026-07-08T14:06:22.090752,1.00270049,.00035465,1.0988,83.9773,18.7653,120.9038,0,U,37677,999,5521,0,-.174E-5,0
SES-3,2011-035A,2026-07-08T13:12:38.090304,1.00271341,.00020406,1.3788,82.8567,22.4788,276.3341,0,U,37748,999,5480,0,-.88E-6,0
KAZSAT-2,2011-035B,2026-07-08T14:06:37.067328,1.00271592,.00019519,0.0278,142.4233,27.4470,54.8373,0,U,37749,999,5361,0,-.183E-5,0
BEIDOU-2 IGSO-4,2011-038A,2026-07-06T20:09:40.657824,1.00281732,.01600704,54.6039,165.4986,231.4311,284.4062,0,U,37763,999,5484,0,.48E-6,0
ASTRA 1N,2011-041A,2026-07-08T12:04:49.447776,1.00274857,.00057402,0.0699,28.4565,82.3257,16.1136,0,U,37775,999,4474,0,.135E-5,0
BSAT-3C (JCSAT-110R),2011-041B,2026-07-08T14:09:08.798688,1.00270006,.00001945,0.0156,346.7655,245.9095,16.1116,0,U,37776,999,5068,0,-.336E-5,0
