BEIDOU-2 G3             
1 36590U 10024A   26189.58662902 -.00000124  00000+0  00000+0 0  9990
2 36590   4.5631  61.4179 0007455 359.3582 156.5776  1.00269706 58986
BADR-5                  
1 36592U 10025A   26189.50543010  .00000169  00000+0  00000+0 0  9991
2 36592   0.0405 140.5490 0005281  53.4474 304.8845  1.00275091 53434
COMS 1                  
1 36744U 10032A   26189.35480981 -.00000198  00000+0  00000+0 0  9991
2 36744   4.8563  75.1008 0011359  14.7290 313.4314  0.99169315 51294
ARABSAT-5A              
1 36745U 10032B   26189.50560344  .00000168  00000+0  00000+0 0  9997
2 36745   0.0961  63.0510 0005614  54.5716  21.3256  1.00270909 58866
ECHOSTAR 15             
1 36792U 10034A   26189.54732083  .00000015  00000+0  00000+0 0  9997
2 36792   0.0172 315.8453 0002104 127.5622 281.3111  1.00270548 58535
BEIDOU-2 IGSO-1         
1 36828U 10036A   26188.62304566 -.00000058  00000+0  00000+0 0  9996
2 36828  54.3062 162.7756 0059224 225.1869 229.2421  1.00266308 58302
NILESAT 201             
1 36830U 10037A   26189.35550315 -.00000043  00000+0  00000+0 0  9990
2 36830   0.0287 166.5838 0005454 327.8933 272.8238  1.00271746 58585
RASCOM-QAF 1R           
1 36831U 10037B   26189.35749649  .00000033  00000+0  00000+0 0  9999
2 36831   0.0180  69.6075 0006474  28.9773 319.3021  1.00271825 58516
AEHF-1 (USA 214)        
1 36868U 10039A   26189.29159779  .00000156  00000+0  00000+0 0  9999
2 36868   8.2696  67.7683 0003818  35.8473 317.5312  1.00271415 53866
XM-5                    
1 37185U 10053A   26189.54801418 -.00000008  00000+0  00000+0 0  9997
2 37185   0.0624 268.3398 0001837 309.8514 150.3954  1.00270805 57693
BSAT-3B                 
1 37207U 10056B   26188.73707647 -.00000335  00000+0  00000+0 0  9997
2 37207   0.0647 238.2587 0002449 303.8616 118.7692  1.00271375 52309
BEIDOU-2 G4             
1 37210U 10057A   26189.53120076 -.00000101  00000+0  00000+0 0  9997
2 37210   3.6964  68.8177 0005269 185.6172  23.2378  1.00270625 57507
SKYTERRA 1              
1 37218U 10061A   26189.55078752 -.00000107  00000+0  00000+0 0  9991
2 37218   5.1678  50.8121 0002229  34.8030 297.8389  1.00270931 57405
HYLAS 1                 
1 37237U 10065A   26188.87500000  .00000160  00000+0  00000+0 0  9994
2 37237   5.6913  72.7804 0000717 130.1391  60.5943  1.00637435  7091
INTELSAT 17 (IS-17)     
1 37238U 10065B   26189.51262346  .00000013  00000+0  00000+0 0  9992
2 37238   0.0111  81.3732 0002619  31.6049  64.0225  1.00272753 53467
BEIDOU-2 IGSO-2         
1 37256U 10068A   26189.60313632 -.00000203  00000+0  00000+0 0  9992
2 37256  47.5085 271.5668 0056755 213.3757 127.0514  1.00276139 57006
EUTELSAT KA-SAT 9A      
1 37258U 10069A   26189.35870983  .00000076  00000+0  00000+0 0  9991
2 37258   0.0606  12.6432 0004205 126.0491 285.7421  1.00270870 44216
HISPASAT 30W-5          
1 37264U 10070A   26189.42227328 -.00000201  00000+0  00000+0 0  9998
2 37264   0.0292 158.4181 0005587 324.2310 285.7453  1.00272257 53395
KOREASAT 6              
1 37265U 10070B   26189.53120076 -.00000097  00000+0  00000+0 0  9996
2 37265   0.0118 315.3864 0002511 166.9932 155.2340  1.00272056 56981
BEIDOU-2 IGSO-3         
1 37384U 11013A   26187.52460699 -.00000170  00000+0  00000+0 0  9993
2 37384  62.4337  39.9702 0035245 183.2519 357.0849  1.00262965 55850
INTELSAT 28 (IS-28)     
1 37392U 11016A   26189.42192661 -.00000211  00000+0  00000+0 0  9993
2 37392   1.8579  82.3644 0003765  34.4907 289.6814  1.00272990 53490
YAHSAT 1A               
1 37393U 11016B   26189.58120766  .00000116  00000+0  00000+0 0  9991
2 37393   0.0207  62.7757 0003220  53.1869  72.2953  1.00270015 42627
SBIRS GEO-1 (USA 230)   
1 37481U 11019A   26189.08210220  .00000111  00000+0  00000+0 0  9997
2 37481   4.5814  53.1106 0001921  46.6051 267.6757  1.00272431 55604
TELSTAR 14R             
1 37602U 11021A   26189.55832756 -.00000265  00000+0  00000+0 0  9992
2 37602   0.0690  84.3956 0001801 355.8308 344.2883  1.00271459 56048
GSAT-8                  
1 37605U 11022A   26189.58155433  .00000098  00000+0  00000+0 0  9992
2 37605   2.1831  81.5665 0002524 166.4494 302.9504  1.00271102 53438
ST-2                    
1 37606U 11022B   26189.58827568 -.00000195  00000+0  00000+0 0  9997
2 37606   0.0147 335.6201 0001368 157.1534  93.5328  1.00266743 55492
ZHONGXING-10            
1 37677U 11026A   26189.58775568 -.00000174  00000+0  00000+0 0  9998
2 37677   1.0988  83.9773 0003546  18.7653 120.9038  1.00270049 55212
SES-3                   
1 37748U 11035A   26189.55044086 -.00000088  00000+0  00000+0 0  9992
2 37748   1.3788  82.8567 0002040  22.4788 276.3341  1.00271341 54803
KAZSAT-2                
1 37749U 11035B   26189.58792902 -.00000183  00000+0  00000+0 0  9999
2 37749   0.0278 142.4233 0001951  27.4470  54.8373  1.00271592 53610
BEIDOU-2 IGSO-4         
1 37763U 11038A   26187.84005391  .00000048  00000+0  00000+0 0  9993
2 37763  54.6039 165.4986 0160070 231.4311 284.4062  1.00281732 54844
ASTRA 1N                
1 37775U 11041A   26189.50335009  .00000135  00000+0  00000+0 0  9994
2 37775   0.0699  28.4565 0005740  82.3257  16.1136  1.00274857 44749
BSAT-3C (JCSAT-110R)    
1 37776U 11041B   26189.58968517 -.00000336  00000+0  00000+0 0  9993
2 37776   0.0156 346.7655 0000194 245.9095  16.1116  1.00270006 50689
